STARLINK-34038          
1 63911U 25095X   26157.78629459  .00025958  00000+0  94998-3 0  9992
2 63911  43.0027  33.0752 0001531 295.0687  65.0006 15.27563105 61408
STARLINK-34031          
1 63912U 25095Y   26158.70558259 -.00021382  00000+0 -77128-3 0  9990
2 63912  43.0010  27.9341 0002142 213.4560 146.6157 15.27511014 61540
STARLINK-34070          
1 63913U 25095Z   26158.37091014  .00020130  00000+0  73870-3 0  9993
2 63913  43.0019  29.7204 0001085 286.0723  74.0009 15.27595363 61493
STARLINK-34068          
1 63914U 25095AA  26158.36061544  .00017441  00000+0  64142-3 0  9991
2 63914  43.0034  29.6427 0004872 268.3717  91.6577 15.27593481 61494
STARLINK-34076          
1 63915U 25095AB  26158.36706027  .00022876  00000+0  83863-3 0  9993
2 63915  43.0057  29.6902 0000394 256.2377 103.8431 15.27565546 61497
STARLINK-33910          
1 63916U 25095AC  26157.36440523  .00033666  00000+0  12249-2 0  9997
2 63916  43.0015  35.0654 0001222 286.4140  73.6577 15.27645233 61342
STARLINK-34075          
1 63917U 25095AD  26158.35678406  .00018200  00000+0  66826-3 0  9999
2 63917  43.0007  29.6077 0001861  14.5203 345.5702 15.27629229 61495
YAOGAN-40 02A           
1 63918U 25096A   26158.85892564  .00000125  00000+0  57347-4 0  9995
2 63918  85.9957 192.1477 0002631  96.8206 263.3277 14.12446179 55252
YAOGAN-40 02B           
1 63919U 25096B   26158.85907779  .00000169  00000+0  81659-4 0  9992
2 63919  85.9953 192.1182 0002188 100.7561 259.3869 14.12445839 55252
YAOGAN-40 02C           
1 63920U 25096C   26158.85899957  .00000176  00000+0  85056-4 0  9995
2 63920  85.9958 191.3942 0002530  94.2735 265.8737 14.12445514 74094
TJS-19                  
1 63924U 25097A   26158.77620965 -.00000264  00000+0  00000+0 0  9992
2 63924   3.3030 317.2737 0002038 234.6960 124.9234  1.00269548  4046
STARLINK-34012          
1 63926U 25098A   26158.71035635  .00005977  00000+0  50799-3 0  9992
2 63926  70.0017  47.6099 0003385 267.4906  92.5865 14.98353155 60073
STARLINK-33956          
1 63927U 25098B   26158.73119169  .00001591  00000+0  14110-3 0  9995
2 63927  70.0017  47.2747 0002750 273.1526  86.9319 14.98333833 60057
STARLINK-33997          
1 63928U 25098C   26158.72288190  .00008111  00000+0  68643-3 0  9991
2 63928  70.0015  47.6450 0003126 270.3457  89.7344 14.98351515 60057
STARLINK-33989          
1 63929U 25098D   26158.69799388  .00003226  00000+0  27797-3 0  9991
2 63929  70.0012  47.5637 0002864 268.1862  91.8969 14.98334786 60052
STARLINK-33980          
1 63930U 25098E   26158.71869719  .00002676  00000+0  23192-3 0  9995
2 63930  70.0014  47.6382 0002832 270.2226  89.8609 14.98336641 60057
STARLINK-33994          
1 63931U 25098F   26158.42677697  .00000572  00000+0  55725-4 0  9997
2 63931  70.0012  48.2228 0002840 268.7078  91.3756 14.98323662 60014
STARLINK-33971          
1 63932U 25098G   26158.71469003  .00003848  00000+0  33003-3 0  9993
2 63932  70.0008  47.6240 0002868 269.3782  90.7048 14.98336725 60051
STARLINK-33877          
1 63933U 25098H   26158.73536752  .00005257  00000+0  44794-3 0  9997
2 63933  70.0006  47.2843 0002640 254.7508 105.3359 14.98335794 60061
STARLINK-33895          
1 63934U 25098J   26158.74388029  .00003384  00000+0  29121-3 0  9997
2 63934  70.0017  47.3216 0002833 265.9547  94.1288 14.98334226 60065
STARLINK-34005          
1 63935U 25098K   26158.71886088  .00003377  00000+0  29055-3 0  9991
2 63935  70.0065  47.6305 0002434 268.8656  91.2225 14.98341529 60042
STARLINK-34027          
1 63936U 25098L   26158.72718465  .00005527  00000+0  47060-3 0  9991
2 63936  70.0018  47.2592 0002937 269.4953  90.5870 14.98333422 60041
STARLINK-34035          
1 63937U 25098M   26158.42260216  .00001669  00000+0  14756-3 0  9994
2 63937  70.0017  48.2056 0003014 264.7379  95.3437 14.98341547 59995
STARLINK-33988          
1 63938U 25098N   26158.70200088  .00002594  00000+0  22512-3 0  9994
2 63938  70.0019  47.5787 0003561 267.9130  92.1621 14.98334473 60035
STARLINK-34020          
1 63939U 25098P   26158.73970672  .00002722  00000+0  23581-3 0  9991
2 63939  70.0020  47.3063 0002783 258.3954 101.6892 14.98335168 60045
STARLINK-34021          
1 63940U 25098Q   26157.45459234  .00003080  00000+0  26584-3 0  9991
2 63940  70.0014  50.8419 0002783 263.0515  97.0327 14.98330750 59849
STARLINK-34004          
1 63941U 25098R   26158.41425747  .00002430  00000+0  21133-3 0  9994
2 63941  70.0020  48.1684 0002570 268.3459  91.7405 14.98331344 59994
STARLINK-34014          
1 63942U 25098S   26158.41825191 -.00014570  00000+0 -12150-2 0  9990
2 63942  70.0017  48.1871 0002258 267.0361  93.0539 14.98359569 59981
STARLINK-33985          
1 63943U 25098T   26158.73553825  .00004222  00000+0  36122-3 0  9995
2 63943  70.0015  47.2839 0002753 273.9882  86.0962 14.98350933 60045
STARLINK-33996          
1 63944U 25098U   26158.70216852  .00002752  00000+0  23828-3 0  9994
2 63944  70.0023  47.5768 0002707 268.6966  91.3883 14.98346320 60037
