OBJECT_NAME,OBJECT_ID,EPOCH,MEAN_MOTION,ECCENTRICITY,INCLINATION,RA_OF_ASC_NODE,ARG_OF_PERICENTER,MEAN_ANOMALY,EPHEMERIS_TYPE,CLASSIFICATION_TYPE,NORAD_CAT_ID,ELEMENT_SET_NO,REV_AT_EPOCH,BSTAR,MEAN_MOTION_DOT,MEAN_MOTION_DDOT
STARLINK-34038,2025-095X,2026-06-06T18:52:15.852576,15.27563105,.00015312,43.0027,33.0752,295.0687,65.0006,0,U,63911,999,6140,.94998061E-3,.25958E-3,0
STARLINK-34031,2025-095Y,2026-06-07T16:56:02.335776,15.27511014,.0002142,43.0010,27.9341,213.4560,146.6157,0,U,63912,999,6154,-.77128E-3,-.21382E-3,0
STARLINK-34070,2025-095Z,2026-06-07T08:54:06.636096,15.27595363,.0001085,43.0019,29.7204,286.0723,74.0009,0,U,63913,999,6149,.7387E-3,.2013E-3,0
STARLINK-34068,2025-095AA,2026-06-07T08:39:17.174016,15.27593481,.0004872,43.0034,29.6427,268.3717,91.6577,0,U,63914,999,6149,.64142E-3,.17441E-3,0
STARLINK-34076,2025-095AB,2026-06-07T08:48:34.007328,15.27565546,.0000394,43.0057,29.6902,256.2377,103.8431,0,U,63915,999,6149,.83863E-3,.22876E-3,0
STARLINK-33910,2025-095AC,2026-06-06T08:44:44.611872,15.27645233,.00012221,43.0015,35.0654,286.4140,73.6577,0,U,63916,999,6134,.12249157E-2,.33666E-3,0
STARLINK-34075,2025-095AD,2026-06-07T08:33:46.142784,15.27629229,.0001861,43.0007,29.6077,14.5203,345.5702,0,U,63917,999,6149,.66826E-3,.182E-3,0
YAOGAN-40 02A,2025-096A,2026-06-07T20:36:51.175296,14.12446179,.0002631,85.9957,192.1477,96.8206,263.3277,0,U,63918,999,5525,.57347E-4,.125E-5,0
YAOGAN-40 02B,2025-096B,2026-06-07T20:37:04.321056,14.12445839,.0002188,85.9953,192.1182,100.7561,259.3869,0,U,63919,999,5525,.81659E-4,.169E-5,0
YAOGAN-40 02C,2025-096C,2026-06-07T20:36:57.562848,14.12445514,.000253,85.9958,191.3942,94.2735,265.8737,0,U,63920,999,7409,.85056E-4,.176E-5,0
TJS-19,2025-097A,2026-06-07T18:37:44.513760,1.00269548,.0002038,3.3030,317.2737,234.6960,124.9234,0,U,63924,999,404,0,-.264E-5,0
STARLINK-34012,2025-098A,2026-06-07T17:02:54.788640,14.98353155,.0003385,70.0017,47.6099,267.4906,92.5865,0,U,63926,999,6007,.50799E-3,.5977E-4,0
STARLINK-33956,2025-098B,2026-06-07T17:32:54.962016,14.98333833,.000275,70.0017,47.2747,273.1526,86.9319,0,U,63927,999,6005,.1411E-3,.1591E-4,0
STARLINK-33997,2025-098C,2026-06-07T17:20:56.996160,14.98351515,.0003126,70.0015,47.6450,270.3457,89.7344,0,U,63928,999,6005,.68643E-3,.8111E-4,0
STARLINK-33989,2025-098D,2026-06-07T16:45:06.671232,14.98334786,.0002864,70.0012,47.5637,268.1862,91.8969,0,U,63929,999,6005,.27797E-3,.3226E-4,0
STARLINK-33980,2025-098E,2026-06-07T17:14:55.437216,14.98336641,.0002832,70.0014,47.6382,270.2226,89.8609,0,U,63930,999,6005,.23192E-3,.2676E-4,0
STARLINK-33994,2025-098F,2026-06-07T10:14:33.530208,14.98323662,.000284,70.0012,48.2228,268.7078,91.3756,0,U,63931,999,6001,.55725E-4,.572E-5,0
STARLINK-33971,2025-098G,2026-06-07T17:09:09.218592,14.98336725,.0002868,70.0008,47.6240,269.3782,90.7048,0,U,63932,999,6005,.33003E-3,.3848E-4,0
STARLINK-33877,2025-098H,2026-06-07T17:38:55.753728,14.98335794,.000264,70.0006,47.2843,254.7508,105.3359,0,U,63933,999,6006,.44794E-3,.5257E-4,0
STARLINK-33895,2025-098J,2026-06-07T17:51:11.257056,14.98334226,.0002833,70.0017,47.3216,265.9547,94.1288,0,U,63934,999,6006,.29121E-3,.3384E-4,0
STARLINK-34005,2025-098K,2026-06-07T17:15:09.580032,14.98341529,.0002434,70.0065,47.6305,268.8656,91.2225,0,U,63935,999,6004,.29055E-3,.3377E-4,0
STARLINK-34027,2025-098L,2026-06-07T17:27:08.753760,14.98333422,.0002937,70.0018,47.2592,269.4953,90.5870,0,U,63936,999,6004,.4706E-3,.5527E-4,0
STARLINK-34035,2025-098M,2026-06-07T10:08:32.826624,14.98341547,.0003014,70.0017,48.2056,264.7379,95.3437,0,U,63937,999,5999,.14756E-3,.1669E-4,0
STARLINK-33988,2025-098N,2026-06-07T16:50:52.876032,14.98334473,.0003561,70.0019,47.5787,267.9130,92.1621,0,U,63938,999,6003,.22512E-3,.2594E-4,0
STARLINK-34020,2025-098P,2026-06-07T17:45:10.660608,14.98335168,.0002783,70.0020,47.3063,258.3954,101.6892,0,U,63939,999,6004,.23581E-3,.2722E-4,0
STARLINK-34021,2025-098Q,2026-06-06T10:54:36.778176,14.98330750,.00027834,70.0014,50.8419,263.0515,97.0327,0,U,63940,999,5984,.26584323E-3,.308E-4,0
STARLINK-34004,2025-098R,2026-06-07T09:56:31.845408,14.98331344,.000257,70.0020,48.1684,268.3459,91.7405,0,U,63941,999,5999,.21133E-3,.243E-4,0
STARLINK-34014,2025-098S,2026-06-07T10:02:16.965024,14.98359569,.0002258,70.0017,48.1871,267.0361,93.0539,0,U,63942,999,5998,-.1215E-2,-.1457E-3,0
STARLINK-33985,2025-098T,2026-06-07T17:39:10.504800,14.98350933,.0002753,70.0015,47.2839,273.9882,86.0962,0,U,63943,999,6004,.36122E-3,.4222E-4,0
STARLINK-33996,2025-098U,2026-06-07T16:51:07.360128,14.98346320,.0002707,70.0023,47.5768,268.6966,91.3883,0,U,63944,999,6003,.23828E-3,.2752E-4,0
